[{"OBJECT_NAME":"VSP RF C1","OBJECT_ID":"2024-043AQ","EPOCH":"2026-03-09T21:56:05.358624","MEAN_MOTION":15.29409663,"ECCENTRICITY":0.00093965,"INCLINATION":97.5441,"RA_OF_ASC_NODE":205.1792,"ARG_OF_PERICENTER":219.6172,"MEAN_ANOMALY":140.4382,"EPHEMERIS_TYPE":0,"CLASSIFICATION_TYPE":"U","NORAD_CAT_ID":59136,"ELEMENT_SET_NO":999,"REV_AT_EPOCH":11190,"BSTAR":0.00026222052,"MEAN_MOTION_DOT":7.409e-5,"MEAN_MOTION_DDOT":0},{"OBJECT_NAME":"STARLINK-34068","OBJECT_ID":"2025-095AA","EPOCH":"2026-03-09T07:45:51.268320","MEAN_MOTION":15.27579423,"ECCENTRICITY":9.188e-5,"INCLINATION":42.9971,"RA_OF_ASC_NODE":178.1184,"ARG_OF_PERICENTER":249.4112,"MEAN_ANOMALY":110.6641,"EPHEMERIS_TYPE":0,"CLASSIFICATION_TYPE":"U","NORAD_CAT_ID":63914,"ELEMENT_SET_NO":999,"REV_AT_EPOCH":4772,"BSTAR":0.0011688208,"MEAN_MOTION_DOT":0.00032041,"MEAN_MOTION_DDOT":0}]
